[{"OBJECT_NAME":"STARLINK-35644","OBJECT_ID":"2025-257Y","EPOCH":"2026-03-09T15:21:41.019840","MEAN_MOTION":15.3019286,"ECCENTRICITY":9.9e-5,"INCLINATION":53.1577,"RA_OF_ASC_NODE":217.407,"ARG_OF_PERICENTER":86.7928,"MEAN_ANOMALY":273.3186,"EPHEMERIS_TYPE":0,"CLASSIFICATION_TYPE":"U","NORAD_CAT_ID":66402,"ELEMENT_SET_NO":999,"REV_AT_EPOCH":1971,"BSTAR":0.00039372,"MEAN_MOTION_DOT":0.00011317,"MEAN_MOTION_DDOT":0},{"OBJECT_NAME":"CZ-6A DEB","OBJECT_ID":"2022-151AJB","EPOCH":"2026-02-27T14:06:27.470880","MEAN_MOTION":15.13235807,"ECCENTRICITY":0.00651829,"INCLINATION":98.7617,"RA_OF_ASC_NODE":191.4844,"ARG_OF_PERICENTER":85.1472,"MEAN_ANOMALY":275.7194,"EPHEMERIS_TYPE":0,"CLASSIFICATION_TYPE":"U","NORAD_CAT_ID":58433,"ELEMENT_SET_NO":999,"REV_AT_EPOCH":15167,"BSTAR":0.0027921214,"MEAN_MOTION_DOT":0.00052525,"MEAN_MOTION_DDOT":0}]
